{"type": "FeatureCollection", "features": [ {"type": "Feature", "properties": {"norad_id": 34609, "name": "COSMOS 2251 DEB", "group": "cosmos-2251-debris", "lat": -49.919306815029444, "lon": -51.24171549580364, "alt_km": 834.000860917984, "timestamp": "2025-12-11T18:59:46.470138+00:00", "meta": {"OBJECT_NAME": "COSMOS 2251 DEB", "OBJECT_ID": "1993-036WE", "EPOCH": "2025-12-10T18:57:46.469088", "MEAN_MOTION": 14.21781608, "ECCENTRICITY": 0.01449667, "INCLINATION": 73.733, "RA_OF_ASC_NODE": 110.2852, "ARG_OF_PERICENTER": 330.0859, "MEAN_ANOMALY": 180.8031, "EPHEMERIS_TYPE": 0, "CLASSIFICATION_TYPE": "U", "NORAD_CAT_ID": 34609, "ELEMENT_SET_NO": 999, "REV_AT_EPOCH": 86604, "BSTAR": 0.0012300062, "MEAN_MOTION_DOT": 2.985e-05, "MEAN_MOTION_DDOT": 0}, "tle": {"line1": "1 34609U 93036WE  25344.79012117  .00002985  00000+0  12300-2 0  9990", "line2": "2 34609  73.7330 110.2852 0144966 330.0859 180.8031 14.21781608866047"}}, "geometry": {"type": "Point", "coordinates": [-51.24171549580364, -49.919306815029444]}}, {"type": "Feature", "properties": {"norad_id": 34610, "name": "COSMOS 2251 DEB", "group": "cosmos-2251-debris", "lat": 73.88501975253456, "lon": 1.2920067796342207, "alt_km": 789.6768740537118, "timestamp": "2025-12-11T18:59:46.470148+00:00", "meta": {"OBJECT_NAME": "COSMOS 2251 DEB", "OBJECT_ID": "1993-036WF", "EPOCH": "2025-12-11T04:55:24.511584", "MEAN_MOTION": 14.07038658, "ECCENTRICITY": 0.01802981, "INCLINATION": 74.0188, "RA_OF_ASC_NODE": 265.0106, "ARG_OF_PERICENTER": 35.9642, "MEAN_ANOMALY": 325.3471, "EPHEMERIS_TYPE": 0, "CLASSIFICATION_TYPE": "U", "NORAD_CAT_ID": 34610, "ELEMENT_SET_NO": 999, "REV_AT_EPOCH": 85538, "BSTAR": 0.0029786906, "MEAN_MOTION_DOT": 5.749e-05, "MEAN_MOTION_DDOT": 0}, "tle": {"line1": "1 34610U 93036WF  25345.20514481  .00005749  00000+0  29787-2 0  9998", "line2": "2 34610  74.0188 265.0106 0180298  35.9642 325.3471 14.07038658855387"}}, "geometry": {"type": "Point", "coordinates": [1.2920067796342207, 73.88501975253456]}}, {"type": "Feature", "properties": {"norad_id": 34611, "name": "COSMOS 2251 DEB", "group": "cosmos-2251-debris", "lat": -62.91516115872773, "lon": 68.8056183872427, "alt_km": 683.1269659806148, "timestamp": "2025-12-11T18:59:46.470159+00:00", "meta": {"OBJECT_NAME": "COSMOS 2251 DEB", "OBJECT_ID": "1993-036WG", "EPOCH": "2025-12-11T03:15:14.545728", "MEAN_MOTION": 14.6945464, "ECCENTRICITY": 0.00228505, "INCLINATION": 74.053, "RA_OF_ASC_NODE": 104.0701, "ARG_OF_PERICENTER": 146.2615, "MEAN_ANOMALY": 277.3725, "EPHEMERIS_TYPE": 0, "CLASSIFICATION_TYPE": "U", "NORAD_CAT_ID": 34611, "ELEMENT_SET_NO": 999, "REV_AT_EPOCH": 88367, "BSTAR": 0.0026513943, "MEAN_MOTION_DOT": 0.00015774, "MEAN_MOTION_DDOT": 0}, "tle": {"line1": "1 34611U 93036WG  25345.13558502  .00015774  00000+0  26514-2 0  9997", "line2": "2 34611  74.0530 104.0701 0022850 146.2615 277.3725 14.69454640883679"}}, "geometry": {"type": "Point", "coordinates": [68.8056183872427, -62.91516115872773]}}, {"type": "Feature", "properties": {"norad_id": 34613, "name": "COSMOS 2251 DEB", "group": "cosmos-2251-debris", "lat": 12.46973915644478, "lon": 96.6283850927549, "alt_km": 758.0860381353041, "timestamp": "2025-12-11T18:59:46.470169+00:00", "meta": {"OBJECT_NAME": "COSMOS 2251 DEB", "OBJECT_ID": "1993-036WJ", "EPOCH": "2025-12-11T05:04:39.156384", "MEAN_MOTION": 14.26417844, "ECCENTRICITY": 0.01101385, "INCLINATION": 73.9633, "RA_OF_ASC_NODE": 281.3278, "ARG_OF_PERICENTER": 113.5424, "MEAN_ANOMALY": 315.4344, "EPHEMERIS_TYPE": 0, "CLASSIFICATION_TYPE": "U", "NORAD_CAT_ID": 34613, "ELEMENT_SET_NO": 999, "REV_AT_EPOCH": 86441, "BSTAR": 0.0017724999, "MEAN_MOTION_DOT": 4.523e-05, "MEAN_MOTION_DDOT": 0}, "tle": {"line1": "1 34613U 93036WJ  25345.21156431  .00004523  00000+0  17725-2 0  9997", "line2": "2 34613  73.9633 281.3278 0110138 113.5424 315.4344 14.26417844864413"}}, "geometry": {"type": "Point", "coordinates": [96.6283850927549, 12.46973915644478]}}, {"type": "Feature", "properties": {"norad_id": 34614, "name": "COSMOS 2251 DEB", "group": "cosmos-2251-debris", "lat": 62.569702795023474, "lon": 131.7104451771637, "alt_km": 922.9369415115907, "timestamp": "2025-12-11T18:59:46.470180+00:00", "meta": {"OBJECT_NAME": "COSMOS 2251 DEB", "OBJECT_ID": "1993-036WK", "EPOCH": "2025-12-10T19:00:31.759200", "MEAN_MOTION": 14.17409998, "ECCENTRICITY": 0.01978528, "INCLINATION": 73.8731, "RA_OF_ASC_NODE": 347.3883, "ARG_OF_PERICENTER": 341.6189, "MEAN_ANOMALY": 71.0573, "EPHEMERIS_TYPE": 0, "CLASSIFICATION_TYPE": "U", "NORAD_CAT_ID": 34614, "ELEMENT_SET_NO": 999, "REV_AT_EPOCH": 84739, "BSTAR": 0.0092988645, "MEAN_MOTION_DOT": 0.00022874, "MEAN_MOTION_DDOT": 0}, "tle": {"line1": "1 34614U 93036WK  25344.79203425  .00022874  00000+0  92989-2 0  9990", "line2": "2 34614  73.8731 347.3883 0197852 341.6189  71.0573 14.17409998847395"}}, "geometry": {"type": "Point", "coordinates": [131.7104451771637, 62.569702795023474]}}, {"type": "Feature", "properties": {"norad_id": 34615, "name": "COSMOS 2251 DEB", "group": "cosmos-2251-debris", "lat": -46.284118493343016, "lon": 133.1188798642558, "alt_km": 798.8884605894864, "timestamp": "2025-12-11T18:59:46.470190+00:00", "meta": {"OBJECT_NAME": "COSMOS 2251 DEB", "OBJECT_ID": "1993-036WL", "EPOCH": "2025-12-10T20:42:57.430080", "MEAN_MOTION": 13.52201417, "ECCENTRICITY": 0.04013963, "INCLINATION": 74.005, "RA_OF_ASC_NODE": 297.151, "ARG_OF_PERICENTER": 204.7797, "MEAN_ANOMALY": 184.5274, "EPHEMERIS_TYPE": 0, "CLASSIFICATION_TYPE": "U", "NORAD_CAT_ID": 34615, "ELEMENT_SET_NO": 999, "REV_AT_EPOCH": 82790, "BSTAR": 0.0001877765, "MEAN_MOTION_DOT": 1.83e-06, "MEAN_MOTION_DDOT": 0}, "tle": {"line1": "1 34615U 93036WL  25344.86316470  .00000183  00000+0  18778-3 0  9998", "line2": "2 34615  74.0050 297.1510 0401396 204.7797 184.5274 13.52201417827904"}}, "geometry": {"type": "Point", "coordinates": [133.1188798642558, -46.284118493343016]}}, {"type": "Feature", "properties": {"norad_id": 34619, "name": "COSMOS 2251 DEB", "group": "cosmos-2251-debris", "lat": 63.38562077597149, "lon": -13.056635103685013, "alt_km": 738.2318836382947, "timestamp": "2025-12-11T18:59:46.470201+00:00", "meta": {"OBJECT_NAME": "COSMOS 2251 DEB", "OBJECT_ID": "1993-036WQ", "EPOCH": "2025-12-11T07:00:35.437248", "MEAN_MOTION": 14.64640802, "ECCENTRICITY": 0.0094699, "INCLINATION": 74.0441, "RA_OF_ASC_NODE": 202.721, "ARG_OF_PERICENTER": 297.92, "MEAN_ANOMALY": 61.2403, "EPHEMERIS_TYPE": 0, "CLASSIFICATION_TYPE": "U", "NORAD_CAT_ID": 34619, "ELEMENT_SET_NO": 999, "REV_AT_EPOCH": 89277, "BSTAR": 0.00036676279, "MEAN_MOTION_DOT": 2.048e-05, "MEAN_MOTION_DDOT": 0}, "tle": {"line1": "1 34619U 93036WQ  25345.29207682  .00002048  00000+0  36676-3 0  9993", "line2": "2 34619  74.0441 202.7210 0094699 297.9200  61.2403 14.64640802892779"}}, "geometry": {"type": "Point", "coordinates": [-13.056635103685013, 63.38562077597149]}}, {"type": "Feature", "properties": {"norad_id": 34620, "name": "COSMOS 2251 DEB", "group": "cosmos-2251-debris", "lat": 40.77480591563696, "lon": -124.41294564006834, "alt_km": 772.0019296675455, "timestamp": "2025-12-11T18:59:46.470211+00:00", "meta": {"OBJECT_NAME": "COSMOS 2251 DEB", "OBJECT_ID": "1993-036WR", "EPOCH": "2025-12-11T02:13:42.946752", "MEAN_MOTION": 14.49056132, "ECCENTRICITY": 0.00809081, "INCLINATION": 74.0509, "RA_OF_ASC_NODE": 222.6176, "ARG_OF_PERICENTER": 259.4219, "MEAN_ANOMALY": 99.7819, "EPHEMERIS_TYPE": 0, "CLASSIFICATION_TYPE": "U", "NORAD_CAT_ID": 34620, "ELEMENT_SET_NO": 999, "REV_AT_EPOCH": 86803, "BSTAR": 0.0032771066, "MEAN_MOTION_DOT": 0.00012967, "MEAN_MOTION_DDOT": 0}, "tle": {"line1": "1 34620U 93036WR  25345.09285818  .00012967  00000+0  32771-2 0  9992", "line2": "2 34620  74.0509 222.6176 0080908 259.4219  99.7819 14.49056132868038"}}, "geometry": {"type": "Point", "coordinates": [-124.41294564006834, 40.77480591563696]}}, {"type": "Feature", "properties": {"norad_id": 34622, "name": "COSMOS 2251 DEB", "group": "cosmos-2251-debris", "lat": 44.48925143419659, "lon": 112.39045140190495, "alt_km": 828.8126060070063, "timestamp": "2025-12-11T18:59:46.470222+00:00", "meta": {"OBJECT_NAME": "COSMOS 2251 DEB", "OBJECT_ID": "1993-036WT", "EPOCH": "2025-12-10T16:12:53.411616", "MEAN_MOTION": 14.22032445, "ECCENTRICITY": 0.01042912, "INCLINATION": 74.0429, "RA_OF_ASC_NODE": 310.7152, "ARG_OF_PERICENTER": 33.6772, "MEAN_ANOMALY": 147.9327, "EPHEMERIS_TYPE": 0, "CLASSIFICATION_TYPE": "U", "NORAD_CAT_ID": 34622, "ELEMENT_SET_NO": 999, "REV_AT_EPOCH": 86430, "BSTAR": 0.0015933318, "MEAN_MOTION_DOT": 3.7e-05, "MEAN_MOTION_DDOT": 0}, "tle": {"line1": "1 34622U 93036WT  25344.67561819  .00003700  00000+0  15933-2 0  9991", "line2": "2 34622  74.0429 310.7152 0104291  33.6772 147.9327 14.22032445864300"}}, "geometry": {"type": "Point", "coordinates": [112.39045140190495, 44.48925143419659]}}, {"type": "Feature", "properties": {"norad_id": 34626, "name": "COSMOS 2251 DEB", "group": "cosmos-2251-debris", "lat": 32.50484116920521, "lon": 135.23720497129761, "alt_km": 652.3383733105275, "timestamp": "2025-12-11T18:59:46.470232+00:00", "meta": {"OBJECT_NAME": "COSMOS 2251 DEB", "OBJECT_ID": "1993-036WX", "EPOCH": "2025-12-11T07:28:18.970752", "MEAN_MOTION": 14.72170375, "ECCENTRICITY": 0.00264869, "INCLINATION": 74.0486, "RA_OF_ASC_NODE": 326.671, "ARG_OF_PERICENTER": 55.3174, "MEAN_ANOMALY": 66.4944, "EPHEMERIS_TYPE": 0, "CLASSIFICATION_TYPE": "U", "NORAD_CAT_ID": 34626, "ELEMENT_SET_NO": 999, "REV_AT_EPOCH": 89123, "BSTAR": 0.0018738324, "MEAN_MOTION_DOT": 0.00011863, "MEAN_MOTION_DDOT": 0}, "tle": {"line1": "1 34626U 93036WX  25345.31133068  .00011863  00000+0  18738-2 0  9993", "line2": "2 34626  74.0486 326.6710 0026486  55.3174  66.4944 14.72170375891231"}}, "geometry": {"type": "Point", "coordinates": [135.23720497129761, 32.50484116920521]}}]}